NORAD_CAT_ID,OBJECT_NAME,OBJECT_TYPE,EPOCH,MEAN_MOTION,ECCENTRICITY,INCLINATION,RA_OF_ASC_NODE,ARG_OF_PERICENTER,MEAN_ANOMALY,BSTAR,MEAN_MOTION_DOT,MEAN_MOTION_DDOT,TLE_LINE0,TLE_LINE1,TLE_LINE2,SEMIMAJOR_AXIS,PERIOD,APOGEE,PERIGEE,DECAYED
49176.0,STARLINK-3069,PAYLOAD,2022-05-31 22:00:00,14.96708976,0.0003164,69.9974,127.5141,276.8963,122.0589,0.0020946,0.00023961,0.0,0 STARLINK-3069,1 49176U 21082AY  22151.91667824  .00023961  00000-0  20946-2 0  9998,2 49176  69.9974 127.5141 0003164 276.8963 122.0589 14.96708976  1307,6955.21,96.211,579.276,574.875,0.0
49176.0,STARLINK-3069,PAYLOAD,2022-06-01 14:00:01,14.96737324,0.0003184,69.9972,125.8372,281.4084,108.6429,-0.0042924,-0.00048907,0.0,0 STARLINK-3069,1 49176U 21082AY  22152.58334491 -.00048907  00000-0 -42924-2 0  9992,2 49176  69.9972 125.8372 0003184 281.4084 108.6429 14.96737324 40709,6955.121999999999,96.209,579.202,574.773,0.0
49176.0,STARLINK-3069,PAYLOAD,2022-06-01 20:00:01,14.96692097,0.0003157,69.9975,125.2084,276.3533,20.3699,0.005005,0.00057635,0.0,0 STARLINK-3069,1 49176U 21082AY  22152.83334491  .00057635  00000-0  50050-2 0  9995,2 49176  69.9975 125.2084 0003157 276.3533  20.3699 14.96692097  1307,6955.263000000001,96.212,579.323,574.932,0.0
49176.0,STARLINK-3069,PAYLOAD,2022-06-02 15:31:48,14.96717924,0.0003241,69.9961,123.1616,279.1699,80.9092,9.8345e-05,1.034e-05,0.0,0 STARLINK-3069,1 49176U 21082AY  22153.64708681  .00001034  00000-0  98345-4 0  9994,2 49176  69.9961 123.1616 0003241 279.1699  80.9092 14.96717924 40868,6955.183000000001,96.211,579.302,574.793,0.0
49176.0,STARLINK-3069,PAYLOAD,2022-06-03 07:34:10,14.96723543,0.000323,69.99600000000001,121.4806,279.1851,80.8942,7.0632e-05,7.17e-06,0.0,0 STARLINK-3069,1 49176U 21082AY  22154.31540208  .00000717  00000-0  70632-4 0  9994,2 49176  69.9960 121.4806 0003230 279.1851  80.8942 14.96723543 40965,6955.165,96.21,579.2769999999998,574.784,0.0
49176.0,STARLINK-3069,PAYLOAD,2022-06-04 04:25:16,14.96719309,0.0002861,69.9965,119.2941,278.5445,81.5389,-0.00015607,-1.878e-05,0.0,0 STARLINK-3069,1 49176U 21082AY  22155.18422431 -.00001878  00000-0 -15607-3 0  9998,2 49176  69.9965 119.2941 0002861 278.5445  81.5389 14.96719309 41099,6955.178000000001,96.21,579.033,575.053,0.0
49176.0,STARLINK-3069,PAYLOAD,2022-06-04 07:37:45,14.96712028,0.0003109,69.9963,118.9585,279.6096,80.4711,-7.1819e-05,-9.14e-06,0.0,0 STARLINK-3069,1 49176U 21082AY  22155.31789067 -.00000914  00000-0 -71819-4 0  9992,2 49176  69.9963 118.9585 0003109 279.6096  80.4711 14.96712028 41118,6955.201,96.211,579.2280000000002,574.903,0.0
49176.0,STARLINK-3069,PAYLOAD,2022-06-05 22:00:00,14.96729782,0.0002995,69.9982,114.9379,276.2556,55.9219,-0.00054355,-6.31e-05,0.0,0 STARLINK-3069,1 49176U 21082AY  22156.91667824 -.00006310  00000-0 -54355-3 0  9996,2 49176  69.9982 114.9379 0002995 276.2556  55.9219 14.96729782 41342,6955.146,96.21,579.094,574.928,0.0
49176.0,STARLINK-3069,PAYLOAD,2022-06-06 14:00:01,14.96729332,0.0002954,69.9977,113.2608,280.1101,43.1844,-0.0022496,-0.00025754,0.0,0 STARLINK-3069,1 49176U 21082AY  22157.58334491 -.00025754  00000-0 -22496-2 0  9994,2 49176  69.9977 113.2608 0002954 280.1101  43.1844 14.96729332  1304,6955.147,96.21,579.067,574.9580000000002,0.0
49176.0,STARLINK-3069,PAYLOAD,2022-06-06 20:00:01,14.96713828,0.0002927,69.9978,112.632,275.5619,314.3967,0.0029596,0.00033947,0.0,0 STARLINK-3069,1 49176U 21082AY  22157.83334491  .00033947  00000-0  29596-2 0  9991,2 49176  69.9978 112.6320 0002927 275.5619 314.3967 14.96713828  1303,6955.195,96.211,579.096,575.024,0.0
49176.0,STARLINK-3069,PAYLOAD,2022-06-07 04:35:59,14.96720492,0.0003037,69.9962,111.7302,278.9194,81.16199999999998,0.00010556,1.117e-05,0.0,0 STARLINK-3069,1 49176U 21082AY  22158.19165629  .00001117  00000-0  10556-3 0  9997,2 49176  69.9962 111.7302 0003037 278.9194  81.1620 14.96720492 41544,6955.175,96.21,579.1519999999998,574.927,0.0
49176.0,STARLINK-3069,PAYLOAD,2022-06-07 06:12:13,14.96721064,0.0003031,69.9963,111.5621,279.0587,81.0228,0.00011034,1.172e-05,0.0,0 STARLINK-3069,1 49176U 21082AY  22158.25848758  .00001172  00000-0  11034-3 0  9998,2 49176  69.9963 111.5621 0003031 279.0587  81.0228 14.96721064 41559,6955.1730000000025,96.21,579.146,574.93,0.0
49176.0,STARLINK-3069,PAYLOAD,2022-06-07 20:38:21,14.96722334,0.0002978,69.9965,110.0491,278.4888,81.5932,6.6003e-05,6.64e-06,0.0,0 STARLINK-3069,1 49176U 21082AY  22158.85997353  .00000664  00000-0  66003-4 0  9992,2 49176  69.9965 110.0491 0002978 278.4888  81.5932 14.96722334 41644,6955.169,96.21,579.105,574.9630000000002,0.0
49176.0,STARLINK-3069,PAYLOAD,2022-06-08 03:03:19,14.96714727,0.0003043,69.9965,109.3765,278.981,81.1003,-3.5359e-05,-4.96e-06,0.0,0 STARLINK-3069,1 49176U 21082AY  22159.12730802 -.00000496  00000-0 -35359-4 0  9992,2 49176  69.9965 109.3765 0003043 278.9810  81.1003 14.96714727 41689,6955.191999999999,96.211,579.174,574.941,0.0
49176.0,STARLINK-3069,PAYLOAD,2022-06-08 06:15:48,14.96713997,0.0003053,69.9966,109.0403,278.7616,81.3196,-4.4434e-05,-6e-06,0.0,0 STARLINK-3069,1 49176U 21082AY  22159.26097267 -.00000600  00000-0 -44434-4 0  9999,2 49176  69.9966 109.0403 0003053 278.7616  81.3196 14.96713997 41705,6955.195,96.211,579.183,574.936,0.0
49176.0,STARLINK-3069,PAYLOAD,2022-06-08 20:41:56,14.96719298,0.0003054,69.9969,107.5276,278.3967,81.6845,-1.7773e-05,-2.95e-06,0.0,0 STARLINK-3069,1 49176U 21082AY  22159.86245564 -.00000295  00000-0 -17773-4 0  9996,2 49176  69.9969 107.5276 0003054 278.3967  81.6845 14.96719298 41798,6955.178000000001,96.21,579.1669999999998,574.919,0.0
49176.0,STARLINK-3069,PAYLOAD,2022-06-09 03:06:53,14.96721352,0.0003069,69.997,106.8552,278.2556,81.8254,-2.4672e-05,-3.74e-06,0.0,0 STARLINK-3069,1 49176U 21082AY  22160.12978167 -.00000374  00000-0 -24672-4 0  9993,2 49176  69.9970 106.8552 0003069 278.2556  81.8254 14.96721352 41833,6955.172,96.21,579.1709999999998,574.9019999999998,0.0
49176.0,STARLINK-3069,PAYLOAD,2022-06-09 07:55:36,14.9671712,0.0003003,69.9972,106.3503,274.882,85.1995,-3.9223e-05,-5.41e-06,0.0,0 STARLINK-3069,1 49176U 21082AY  22160.33028038 -.00000541  00000-0 -39223-4 0  9993,2 49176  69.9972 106.3503 0003003 274.8820  85.1995 14.96717120 41860,6955.185,96.211,579.139,574.961,0.0
49176.0,STARLINK-3069,PAYLOAD,2022-06-09 14:20:34,14.96707302,0.0002961,69.997,105.6782,281.4773,78.6052,-0.00010881,-1.337e-05,0.0,0 STARLINK-3069,1 49176U 21082AY  22160.59761733 -.00001337  00000-0 -10881-3 0  9999,2 49176  69.9970 105.6782 0002961 281.4773  78.6052 14.96707302 41909,6955.215,96.211,579.14,575.021,0.0
49176.0,STARLINK-3069,PAYLOAD,2022-06-10 07:59:11,14.96706962,0.0003042,69.9963,103.8293,277.9083,82.17299999999999,7.9232e-06,-1e-08,0.0,0 STARLINK-3069,1 49176U 21082AY  22161.33276991 -.00000001  00000-0  79232-5 0  9992,2 49176  69.9963 103.8293 0003042 277.9083  82.1730 14.96706962 42010,6955.217,96.211,579.197,574.966,0.0
49176.0,STARLINK-3069,PAYLOAD,2022-06-10 20:49:05,14.96709902,0.0003025,69.9951,102.4842,277.543,82.5384,-3.2193e-05,-4.6e-06,0.0,0 STARLINK-3069,1 49176U 21082AY  22161.86742770 -.00000460  00000-0 -32193-4 0  9997,2 49176  69.9951 102.4842 0003025 277.5430  82.5384 14.96709902 42099,6955.206999999999,96.211,579.1759999999998,574.9680000000002,0.0
49176.0,STARLINK-3069,PAYLOAD,2022-06-11 22:28:54,14.96712497,0.0002935,69.9966,99.7949,278.4628,81.6198,0.00014647,1.585e-05,0.0,0 STARLINK-3069,1 49176U 21082AY  22162.93673723  .00001585  00000-0  14647-3 0  9997,2 49176  69.9966  99.7949 0002935 278.4628  81.6198 14.96712497 42253,6955.199000000001,96.211,579.106,575.023,0.0
49176.0,STARLINK-3069,PAYLOAD,2022-06-12 04:53:50,14.96717684,0.0002916,69.9968,99.1225,278.2266,81.8562,0.00015906,1.729e-05,0.0,0 STARLINK-3069,1 49176U 21082AY  22163.20406194  .00001729  00000-0  15906-3 0  9993,2 49176  69.9968  99.1225 0002916 278.2266  81.8562 14.96717684 42295,6955.183000000001,96.211,579.076,575.02,0.0
49176.0,STARLINK-3069,PAYLOAD,2022-06-12 12:55:02,14.96721093,0.0002914,69.9968,98.2821,277.6854,82.3974,0.00018041,1.974e-05,0.0,0 STARLINK-3069,1 49176U 21082AY  22163.53821871  .00001974  00000-0  18041-3 0  9997,2 49176  69.9968  98.2821 0002914 277.6854  82.3974 14.96721093 42349,6955.1730000000025,96.21,579.064,575.011,0.0
49176.0,STARLINK-3069,PAYLOAD,2022-06-12 20:56:13,14.96726612,0.0002901999999999,69.9971,97.4415,276.91,83.1728,0.00015895,1.729e-05,0.0,0 STARLINK-3069,1 49176U 21082AY  22163.87237449  .00001729  00000-0  15895-3 0  9998,2 49176  69.9971  97.4415 0002902 276.9100  83.1728 14.96726612 42399,6955.156,96.21,579.039,575.002,0.0
49176.0,STARLINK-3069,PAYLOAD,2022-06-13 04:57:24,14.96720477,0.0002938,69.9971,96.601,275.4676,84.6147,7.1422e-05,7.26e-06,0.0,0 STARLINK-3069,1 49176U 21082AY  22164.20653854  .00000726  00000-0  71422-4 0  9993,2 49176  69.9971  96.6010 0002938 275.4676  84.6147 14.96720477 42442,6955.175,96.21,579.0830000000002,574.996,0.0
49176.0,STARLINK-3069,PAYLOAD,2022-06-13 12:58:36,14.96720219,0.0002985,69.9971,95.7603,275.6137,84.4681,4.4184e-05,4.14e-06,0.0,0 STARLINK-3069,1 49176U 21082AY  22164.54069797  .00000414  00000-0  44184-4 0  9996,2 49176  69.9971  95.7603 0002985 275.6137  84.4681 14.96720219 42496,6955.175,96.21,579.117,574.964,0.0
49176.0,STARLINK-3069,PAYLOAD,2022-06-13 20:59:47,14.96723836,0.0003009,69.997,94.9198,275.6483,84.4332,7.0859e-05,7.200000000000001e-06,0.0,0 STARLINK-3069,1 49176U 21082AY  22164.87485335  .00000720  00000-0  70859-4 0  9990,2 49176  69.9970  94.9198 0003009 275.6483  84.4332 14.96723836 42544,6955.1640000000025,96.21,579.122,574.936,0.0
49176.0,STARLINK-3069,PAYLOAD,2022-06-14 05:00:58,14.9672695,0.0003043,69.9968,94.0792,275.5411,84.54,3.7605e-05,3.39e-06,0.0,0 STARLINK-3069,1 49176U 21082AY  22165.20901084  .00000339  00000-0  37605-4 0  9990,2 49176  69.9968  94.0792 0003043 275.5411  84.5400 14.96726950 42592,6955.155,96.21,579.136,574.903,0.0
